IRIDIUM 166             
1 43570U 18061B   26021.50206282  .00000268  00000+0  88719-4 0  9993
2 43570  86.3986 118.0982 0001980  93.8376 266.3046 14.34219891392377
IRIDIUM 158             
1 43571U 18061C   26021.54011883  .00000483  00000+0  16544-3 0  9994
2 43571  86.3984 118.0923 0002346  98.1254 262.0208 14.34220053392343
IRIDIUM 165             
1 43572U 18061D   26021.35618315  .00000514  00000+0  17648-3 0  9998
2 43572  86.3989 118.2127 0002050  95.1447 264.9983 14.34221301392348
IRIDIUM 155             
1 43573U 18061E   26021.52743028  .00000390  00000+0  13209-3 0  9999
2 43573  86.3985 118.0176 0002258  93.5770 266.5684 14.34221557392336
IRIDIUM 154             
1 43574U 18061F   26021.29909971  .00000443  00000+0  15104-3 0  9990
2 43574  86.3991 118.2393 0002050  95.3140 264.8289 14.34220777392355
IRIDIUM 163             
1 43575U 18061G   26021.34983798  .00000478  00000+0  16378-3 0  9998
2 43575  86.3986 118.1381 0002233 100.0118 260.1330 14.34221856392331
IRIDIUM 156             
1 43576U 18061H   26021.53377619  .00000487  00000+0  16681-3 0  9996
2 43576  86.3983 118.0679 0002239  90.4148 269.7304 14.34219813392357
IRIDIUM 164             
1 43577U 18061J   26021.51474760  .00000445  00000+0  15170-3 0  9996
2 43577  86.3984 118.1141 0001938  95.2285 264.9132 14.34219891392390
